$$SOE
2461302.500000000, A.D. 2026-Sep-19 00:00:00.0000, 1.073014260632387E+07, 3.950248448984894E+08, -3.229661651798224E+07,
2461309.500000000, A.D. 2026-Sep-26 00:00:00.0000, 1.884254747343027E+04, 3.956839198662049E+08, -3.032336865671919E+07,
2461316.500000000, A.D. 2026-Oct-03 00:00:00.0000, -1.069258043161291E+07, 3.960356682607309E+08, -2.832655747180472E+07,
2461323.500000000, A.D. 2026-Oct-10 00:00:00.0000, -2.139583229741925E+07, 3.960806209832206E+08, -2.630779163820912E+07,
2461330.500000000, A.D. 2026-Oct-17 00:00:00.0000, -3.208266732108293E+07, 3.958195236333285E+08, -2.426868714917362E+07,
2461337.500000000, A.D. 2026-Oct-24 00:00:00.0000, -4.274489250212473E+07, 3.952533337764729E+08, -2.221086628783113E+07,
2461344.500000000, A.D. 2026-Oct-31 00:00:00.0000, -5.337437177438770E+07, 3.943832180199126E+08, -2.013595664322883E+07,
2461351.500000000, A.D. 2026-Nov-07 00:00:00.0000, -6.396302966058581E+07, 3.932105489771050E+08, -1.804559019514106E+07,
2461358.500000000, A.D. 2026-Nov-14 00:00:00.0000, -7.450285418064027E+07, 3.917369030141568E+08, -1.594140241301452E+07,
2461365.500000000, A.D. 2026-Nov-21 00:00:00.0000, -8.498590083012536E+07, 3.899640594682212E+08, -1.382503114683461E+07,
2461372.500000000, A.D. 2026-Nov-28 00:00:00.0000, -9.540429862819217E+07, 3.878939983330431E+08, -1.169811546316217E+07,
2461379.500000000, A.D. 2026-Dec-05 00:00:00.0000, -1.057502546202988E+08, 3.855288957544559E+08, -9.562294810074672E+06,
2461386.500000000, A.D. 2026-Dec-12 00:00:00.0000, -1.160160566767533E+08, 3.828711204520460E+08, -7.419208271044031E+06,
2461393.500000000, A.D. 2026-Dec-19 00:00:00.0000, -1.261940764759930E+08, 3.799232310758349E+08, -5.270493733185619E+06,
2461400.500000000, A.D. 2026-Dec-26 00:00:00.0000, -1.362767728188878E+08, 3.766879736273445E+08, -3.117787026229739E+06,
2461407.500000000, A.D. 2027-Jan-02 00:00:00.0000, -1.462566950057186E+08, 3.731682787532737E+08, -9.627210718974471E+05,
2461414.500000000, A.D. 2027-Jan-09 00:00:00.0000, -1.561264861669725E+08, 3.693672589345574E+08, 1.193074948022723E+06,
2461421.500000000, A.D. 2027-Jan-16 00:00:00.0000, -1.658788865191714E+08, 3.652882055835167E+08, 3.347976402968138E+06,
2461428.500000000, A.D. 2027-Jan-23 00:00:00.0000, -1.755067365047787E+08, 3.609345860119287E+08, 5.500363997393757E+06,
2461435.500000000, A.D. 2027-Jan-30 00:00:00.0000, -1.850029796334552E+08, 3.563100402222988E+08, 7.648624506551921E+06,
2461442.500000000, A.D. 2027-Feb-06 00:00:00.0000, -1.943606646061997E+08, 3.514183778610930E+08, 9.791151453695327E+06,
2461449.500000000, A.D. 2027-Feb-13 00:00:00.0000, -2.035729471908252E+08, 3.462635765534479E+08, 1.192634587118092E+07,
2461456.500000000, A.D. 2027-Feb-20 00:00:00.0000, -2.126330942201299E+08, 3.408497808312591E+08, 1.405261729818042E+07,
2461463.500000000, A.D. 2027-Feb-27 00:00:00.0000, -2.215344883192392E+08, 3.351812984411076E+08, 1.616838462514809E+07,
2461470.500000000, A.D. 2027-Mar-06 00:00:00.0000, -2.302706303480938E+08, 3.292625959499217E+08, 1.827207666642030E+07,
2461477.500000000, A.D. 2027-Mar-13 00:00:00.0000, -2.388351411670593E+08, 3.230982956987531E+08, 2.036213277594827E+07,
2461484.500000000, A.D. 2027-Mar-20 00:00:00.0000, -2.472217638587471E+08, 3.166931732721461E+08, 2.243700354219943E+07,
2461491.500000000, A.D. 2027-Mar-27 00:00:00.0000, -2.554243662060221E+08, 3.100521549325426E+08, 2.449515149960206E+07,
2461498.500000000, A.D. 2027-Apr-03 00:00:00.0000, -2.634369432261937E+08, 3.031803149693416E+08, 2.653505183475102E+07,
2461505.500000000, A.D. 2027-Apr-10 00:00:00.0000, -2.712536197034916E+08, 2.960828729832572E+08, 2.855519308431378E+07,
2461512.500000000, A.D. 2027-Apr-17 00:00:00.0000, -2.788686527010707E+08, 2.887651910893816E+08, 3.055407782208279E+07,
2461519.500000000, A.D. 2027-Apr-24 00:00:00.0000, -2.862764339764505E+08, 2.812327709744653E+08, 3.253022332344092E+07,
2461526.500000000, A.D. 2027-May-01 00:00:00.0000, -2.934714920035944E+08, 2.734912508336580E+08, 3.448216218261109E+07,
2461533.500000000, A.D. 2027-May-08 00:00:00.0000, -3.004484932970979E+08, 2.655464029321402E+08, 3.640844291619577E+07,
2461540.500000000, A.D. 2027-May-15 00:00:00.0000, -3.072022445395039E+08, 2.574041327425892E+08, 3.830763076880872E+07,
2461547.500000000, A.D. 2027-May-22 00:00:00.0000, -3.137276970798593E+08, 2.490704770668575E+08, 4.017830865318803E+07,
2461554.500000000, A.D. 2027-May-29 00:00:00.0000, -3.200199504466606E+08, 2.405515996718901E+08, 4.201907779750329E+07,
2461561.500000000, A.D. 2027-Jun-05 00:00:00.0000, -3.260742539898742E+08, 2.318537875648226E+08, 4.382855827480064E+07,
2461568.500000000, A.D. 2027-Jun-12 00:00:00.0000, -3.318860086646479E+08, 2.229834483354683E+08, 4.560538963455477E+07,
2461575.500000000, A.D. 2027-Jun-19 00:00:00.0000, -3.374507692910192E+08, 2.139471076306343E+08, 4.734823159101978E+07,
2461582.500000000, A.D. 2027-Jun-26 00:00:00.0000, -3.427642470108318E+08, 2.047514064966656E+08, 4.905576472195935E+07,
2461589.500000000, A.D. 2027-Jul-03 00:00:00.0000, -3.478223118103422E+08, 1.954030985950254E+08, 5.072669116681743E+07,
2461596.500000000, A.D. 2027-Jul-10 00:00:00.0000, -3.526209950726120E+08, 1.859090472960691E+08, 5.235973532219838E+07,
2461603.500000000, A.D. 2027-Jul-17 00:00:00.0000, -3.571564921243139E+08, 1.762762226086682E+08, 5.395364452873520E+07,
2461610.500000000, A.D. 2027-Jul-24 00:00:00.0000, -3.614251646213700E+08, 1.665116978794346E+08, 5.550718973048953E+07,
2461617.500000000, A.D. 2027-Jul-31 00:00:00.0000, -3.654235423625340E+08, 1.566226464935578E+08, 5.701916608903063E+07,
2461624.500000000, A.D. 2027-Aug-07 00:00:00.0000, -3.691483247320589E+08, 1.466163397252873E+08, 5.848839366533260E+07,
2461631.500000000, A.D. 2027-Aug-14 00:00:00.0000, -3.725963840741591E+08, 1.365001454815631E+08, 5.991371836061284E+07,
2461638.500000000, A.D. 2027-Aug-21 00:00:00.0000, -3.757647703823372E+08, 1.262815245740856E+08, 6.129401278542145E+07,
2461645.500000000, A.D. 2027-Aug-28 00:00:00.0000, -3.786507138667790E+08, 1.159680257222303E+08, 6.262817684035227E+07,
2461652.500000000, A.D. 2027-Sep-04 00:00:00.0000, -3.812516265723163E+08, 1.055672817822825E+08, 6.391513831940618E+07,
2461659.500000000, A.D. 2027-Sep-11 00:00:00.0000, -3.835651044395068E+08, 9.508700653282756E+07, 6.515385360862766E+07,
2461666.500000000, A.D. 2027-Sep-18 00:00:00.0000, -3.855889296763148E+08, 8.453499135934287E+07, 6.634330841444013E+07,
2461673.500000000, A.D. 2027-Sep-25 00:00:00.0000, -3.873210732128989E+08, 7.391910175514315E+07, 6.748251849481732E+07,
2461680.500000000, A.D. 2027-Oct-02 00:00:00.0000, -3.887596971658858E+08, 6.324727366276790E+07, 6.857053038952236E+07,
2461687.500000000, A.D. 2027-Oct-09 00:00:00.0000, -3.899031572896767E+08, 5.252750964924543E+07, 6.960642214769992E+07,
2461694.500000000, A.D. 2027-Oct-16 00:00:00.0000, -3.907500053494415E+08, 4.176787485836845E+07, 7.058930404273741E+07,
2461701.500000000, A.D. 2027-Oct-23 00:00:00.0000, -3.912989911520243E+08, 3.097649273148577E+07, 7.151831924978532E+07,
2461708.500000000, A.D. 2027-Oct-30 00:00:00.0000, -3.915490638550982E+08, 2.016154110332121E+07, 7.239264450079735E+07,
2461715.500000000, A.D. 2027-Nov-06 00:00:00.0000, -3.914993737127966E+08, 9.331249796023794E+06, 7.321149091517457E+07,
2461722.500000000, A.D. 2027-Nov-13 00:00:00.0000, -3.911492762400653E+08, -1.506102370482754E+06, 7.397410501805261E+07,
2461729.500000000, A.D. 2027-Nov-20 00:00:00.0000, -3.904983358923411E+08, -1.234219334160148E+07, 7.467976950180385E+07,
2461736.500000000, A.D. 2027-Nov-27 00:00:00.0000, -3.895463276372917E+08, -2.316866340220037E+07, 7.532780382423034E+07,
2461743.500000000, A.D. 2027-Dec-04 00:00:00.0000, -3.882932384336602E+08, -3.397711965240484E+07, 7.591756490219121E+07,
2461750.500000000, A.D. 2027-Dec-11 00:00:00.0000, -3.867392691625498E+08, -4.475914035528557E+07, 7.644844787148964E+07,
2461757.500000000, A.D. 2027-Dec-18 00:00:00.0000, -3.848848367328298E+08, -5.550627950003235E+07, 7.691988685997958E+07,
2461764.500000000, A.D. 2027-Dec-25 00:00:00.0000, -3.827305762038869E+08, -6.621007158579499E+07, 7.733135575945166E+07,
2461771.500000000, A.D. 2028-Jan-01 00:00:00.0000, -3.802773428780163E+08, -7.686203661460054E+07, 7.768236899295232E+07,
$$EOE